0 EUTE 9A (HB 7A)
1 28946U 06007B   13281.17549249  .00000052  00000-0  10000-3 0  2598
2 28946 000.0701 063.6898 0004863 157.1122 228.3786 01.00273942 27833
0 EUTE 9A (HB 7A)
1 28946U 06007B   13282.26618876  .00000049  00000-0  10000-3 0  2600
2 28946 000.0686 063.6402 0004738 158.0776 261.1888 01.00273719 27843
0 EUTE 9A (HB 7A)
1 28946U 06007B   13283.10301394  .00000046  00000-0  10000-3 0  2616
2 28946 000.0682 062.7210 0005584 150.1047 212.1722 01.00273356 27851
0 EUTE 9A (HB 7A)
1 28946U 06007B   13283.88034992  .00000044  00000-0  10000-3 0  2627
2 28946 000.0642 059.8536 0004064 165.3564 120.3766 01.00273119 27854
0 EUTE 9A (HB 7A)
1 28946U 06007B   13285.22853435  .00000039  00000-0  10000-3 0  2644
2 28946 000.0574 056.8036 0005018 159.6489 255.7965 01.00270755 27871
0 EUTE 9A (HB 7A)
1 28946U 06007B   13286.24441450  .00000037  00000-0  10000-3 0  2656
2 28946 000.0580 060.3353 0005041 156.6444 261.9792 01.00270427 27888
0 EUTE 9A (HB 7A)
1 28946U 06007B   13288.77409448  .00000037  00000-0  10000-3 0  2668
2 28946 000.0637 062.6062 0005185 156.0295 093.4946 01.00271539 27907
0 EUTE 9A (HB 7A)
1 28946U 06007B   13290.14144054  .00000039  00000-0  10000-3 0  2674
2 28946 000.0673 063.4925 0005295 156.8282 225.3999 01.00271894 27920
0 EUTE 9A (HB 7A)
1 28946U 06007B   13291.13700948  .00000041  00000-0  10000-3 0  2688
2 28946 000.0692 063.7157 0005543 161.1383 220.2570 01.00272562 27931
0 EUTE 9A (HB 7A)
1 28946U 06007B   13292.13811288  .00000043  00000-0  10000-3 0  2692
2 28946 000.0709 063.9710 0005697 164.3798 218.1465 01.00273024 27946
0 EUTE 9A (HB 7A)
1 28946U 06007B   13293.14298917  .00000045  00000-0  10000-3 0  2706
2 28946 000.0727 065.1311 0005732 163.8062 220.3119 01.00273543 27953
0 EUTE 9A (HB 7A)
1 28946U 06007B   13295.06968779  .00000049  00000-0  10000-3 0  2714
2 28946 000.0672 061.9487 0005941 172.1162 190.7085 01.00274454 27972
